{"type": "FeatureCollection", "features": [ {"type": "Feature", "properties": {"norad_id": 66949, "name": "STARLINK-36096", "group": "last-30-days", "lat": 17.53008181921115, "lon": 147.6994712837187, "alt_km": 400.36279076767187, "timestamp": "2025-12-26T14:28:46.397714+00:00", "meta": {"OBJECT_NAME": "STARLINK-36096", "OBJECT_ID": "2025-286AA", "EPOCH": "2025-12-26T06:00:02.999808", "MEAN_MOTION": 15.5651428, "ECCENTRICITY": 0.00012324, "INCLINATION": 53.159, "RA_OF_ASC_NODE": 343.1049, "ARG_OF_PERICENTER": 94.0041, "MEAN_ANOMALY": 244.0709, "EPHEMERIS_TYPE": 0, "CLASSIFICATION_TYPE": "U", "NORAD_CAT_ID": 66949, "ELEMENT_SET_NO": 999, "REV_AT_EPOCH": 416, "BSTAR": -0.031999167, "MEAN_MOTION_DOT": -0.02060747, "MEAN_MOTION_DDOT": 0}, "tle": {"line1": "1 66949U 25286AA  25360.25003472 -.02060747  00000+0 -31999-1 0  9995", "line2": "2 66949  53.1590 343.1049 0001232  94.0041 244.0709 15.56514280  4163"}}, "geometry": {"type": "Point", "coordinates": [147.6994712837187, 17.53008181921115]}}, {"type": "Feature", "properties": {"norad_id": 66950, "name": "STARLINK-36111", "group": "last-30-days", "lat": 14.53336400435651, "lon": 150.18303026540423, "alt_km": 400.90770815731776, "timestamp": "2025-12-26T14:28:46.397727+00:00", "meta": {"OBJECT_NAME": "STARLINK-36111", "OBJECT_ID": "2025-286AB", "EPOCH": "2025-12-26T06:00:02.999808", "MEAN_MOTION": 15.56514004, "ECCENTRICITY": 0.00012812, "INCLINATION": 53.1591, "RA_OF_ASC_NODE": 343.0966, "ARG_OF_PERICENTER": 89.4713, "MEAN_ANOMALY": 252.4352, "EPHEMERIS_TYPE": 0, "CLASSIFICATION_TYPE": "U", "NORAD_CAT_ID": 66950, "ELEMENT_SET_NO": 999, "REV_AT_EPOCH": 416, "BSTAR": -0.031972617, "MEAN_MOTION_DOT": -0.02059233, "MEAN_MOTION_DDOT": 0}, "tle": {"line1": "1 66950U 25286AB  25360.25003472 -.02059233  00000+0 -31973-1 0  9997", "line2": "2 66950  53.1591 343.0966 0001281  89.4713 252.4352 15.56514004  4162"}}, "geometry": {"type": "Point", "coordinates": [150.18303026540423, 14.53336400435651]}}, {"type": "Feature", "properties": {"norad_id": 66951, "name": "STARLINK-35999", "group": "last-30-days", "lat": 13.02579004374452, "lon": 151.3980507567184, "alt_km": 401.17816128059076, "timestamp": "2025-12-26T14:28:46.397737+00:00", "meta": {"OBJECT_NAME": "STARLINK-35999", "OBJECT_ID": "2025-286AC", "EPOCH": "2025-12-26T06:00:02.999808", "MEAN_MOTION": 15.56516402, "ECCENTRICITY": 0.00011573, "INCLINATION": 53.1592, "RA_OF_ASC_NODE": 343.0924, "ARG_OF_PERICENTER": 90.8728, "MEAN_ANOMALY": 252.9486, "EPHEMERIS_TYPE": 0, "CLASSIFICATION_TYPE": "U", "NORAD_CAT_ID": 66951, "ELEMENT_SET_NO": 999, "REV_AT_EPOCH": 416, "BSTAR": -0.031999474, "MEAN_MOTION_DOT": -0.02060863, "MEAN_MOTION_DDOT": 0}, "tle": {"line1": "1 66951U 25286AC  25360.25003472 -.02060863  00000+0 -31999-1 0  9997", "line2": "2 66951  53.1592 343.0924 0001157  90.8728 252.9486 15.56516402  4169"}}, "geometry": {"type": "Point", "coordinates": [151.3980507567184, 13.02579004374452]}}, {"type": "Feature", "properties": {"norad_id": 66952, "name": "STARLINK-36122", "group": "last-30-days", "lat": 16.03365893335792, "lon": 148.95197276942048, "alt_km": 400.5828049217698, "timestamp": "2025-12-26T14:28:46.397747+00:00", "meta": {"OBJECT_NAME": "STARLINK-36122", "OBJECT_ID": "2025-286AD", "EPOCH": "2025-12-26T06:00:02.999808", "MEAN_MOTION": 15.56479319, "ECCENTRICITY": 0.00013385, "INCLINATION": 53.1592, "RA_OF_ASC_NODE": 343.1006, "ARG_OF_PERICENTER": 95.5616, "MEAN_ANOMALY": 244.456, "EPHEMERIS_TYPE": 0, "CLASSIFICATION_TYPE": "U", "NORAD_CAT_ID": 66952, "ELEMENT_SET_NO": 999, "REV_AT_EPOCH": 416, "BSTAR": -0.031412812, "MEAN_MOTION_DOT": -0.02024666, "MEAN_MOTION_DDOT": 0}, "tle": {"line1": "1 66952U 25286AD  25360.25003472 -.02024666  00000+0 -31413-1 0  9990", "line2": "2 66952  53.1592 343.1006 0001338  95.5616 244.4560 15.56479319  4165"}}, "geometry": {"type": "Point", "coordinates": [148.95197276942048, 16.03365893335792]}}, {"type": "Feature", "properties": {"norad_id": 66953, "name": "HULIANWANG DIGUI-114", "group": "last-30-days", "lat": -17.693075847310435, "lon": -20.00324630309777, "alt_km": 1025.465760128036, "timestamp": "2025-12-26T14:28:46.397759+00:00", "meta": {"OBJECT_NAME": "HULIANWANG DIGUI-114", "OBJECT_ID": "2025-287A", "EPOCH": "2025-12-20T09:09:14.655168", "MEAN_MOTION": 13.66161866, "ECCENTRICITY": 0.00096738, "INCLINATION": 86.496, "RA_OF_ASC_NODE": 343.3747, "ARG_OF_PERICENTER": 185.0352, "MEAN_ANOMALY": 175.071, "EPHEMERIS_TYPE": 0, "CLASSIFICATION_TYPE": "U", "NORAD_CAT_ID": 66953, "ELEMENT_SET_NO": 999, "REV_AT_EPOCH": 157, "BSTAR": 3.033618e-06, "MEAN_MOTION_DOT": 1.9e-07, "MEAN_MOTION_DDOT": 0}, "tle": {"line1": "1 66953U 25287A   25354.38141962  .00000019  00000+0  30336-5 0  9995", "line2": "2 66953  86.4960 343.3747 0009673 185.0352 175.0710 13.66161866  1572"}}, "geometry": {"type": "Point", "coordinates": [-20.00324630309777, -17.693075847310435]}}, {"type": "Feature", "properties": {"norad_id": 66954, "name": "HULIANWANG DIGUI-115", "group": "last-30-days", "lat": -42.71543365851762, "lon": -22.10392065907648, "alt_km": 1031.6396147466548, "timestamp": "2025-12-26T14:28:46.397770+00:00", "meta": {"OBJECT_NAME": "HULIANWANG DIGUI-115", "OBJECT_ID": "2025-287B", "EPOCH": "2025-12-24T22:10:56.489088", "MEAN_MOTION": 13.63539042, "ECCENTRICITY": 0.0003385, "INCLINATION": 86.5036, "RA_OF_ASC_NODE": 341.7372, "ARG_OF_PERICENTER": 109.9724, "MEAN_ANOMALY": 250.1798, "EPHEMERIS_TYPE": 0, "CLASSIFICATION_TYPE": "U", "NORAD_CAT_ID": 66954, "ELEMENT_SET_NO": 999, "REV_AT_EPOCH": 219, "BSTAR": 8.442119e-06, "MEAN_MOTION_DOT": 2.3e-07, "MEAN_MOTION_DDOT": 0}, "tle": {"line1": "1 66954U 25287B   25358.92426492  .00000023  00000+0  84421-5 0  9993", "line2": "2 66954  86.5036 341.7372 0003385 109.9724 250.1798 13.63539042  2198"}}, "geometry": {"type": "Point", "coordinates": [-22.10392065907648, -42.71543365851762]}}, {"type": "Feature", "properties": {"norad_id": 66955, "name": "HULIANWANG DIGUI-116", "group": "last-30-days", "lat": -26.444548147856075, "lon": -20.64511270174608, "alt_km": 1026.7122033805208, "timestamp": "2025-12-26T14:28:46.397780+00:00", "meta": {"OBJECT_NAME": "HULIANWANG DIGUI-116", "OBJECT_ID": "2025-287C", "EPOCH": "2025-12-24T23:52:55.515936", "MEAN_MOTION": 13.64194122, "ECCENTRICITY": 0.00016332, "INCLINATION": 86.4919, "RA_OF_ASC_NODE": 341.6856, "ARG_OF_PERICENTER": 94.3011, "MEAN_ANOMALY": 265.8333, "EPHEMERIS_TYPE": 0, "CLASSIFICATION_TYPE": "U", "NORAD_CAT_ID": 66955, "ELEMENT_SET_NO": 999, "REV_AT_EPOCH": 220, "BSTAR": 0.0001652864, "MEAN_MOTION_DOT": 1.48e-06, "MEAN_MOTION_DDOT": 0}, "tle": {"line1": "1 66955U 25287C   25358.99508699  .00000148  00000+0  16529-3 0  9991", "line2": "2 66955  86.4919 341.6856 0001633  94.3011 265.8333 13.64194122  2201"}}, "geometry": {"type": "Point", "coordinates": [-20.64511270174608, -26.444548147856075]}}, {"type": "Feature", "properties": {"norad_id": 66956, "name": "HULIANWANG DIGUI-117", "group": "last-30-days", "lat": -10.590862315221337, "lon": -19.539797595551487, "alt_km": 1023.2477112602473, "timestamp": "2025-12-26T14:28:46.397790+00:00", "meta": {"OBJECT_NAME": "HULIANWANG DIGUI-117", "OBJECT_ID": "2025-287D", "EPOCH": "2025-12-24T22:03:29.281824", "MEAN_MOTION": 13.64670553, "ECCENTRICITY": 0.00010447, "INCLINATION": 86.4976, "RA_OF_ASC_NODE": 341.7257, "ARG_OF_PERICENTER": 103.5815, "MEAN_ANOMALY": 256.5458, "EPHEMERIS_TYPE": 0, "CLASSIFICATION_TYPE": "U", "NORAD_CAT_ID": 66956, "ELEMENT_SET_NO": 999, "REV_AT_EPOCH": 219, "BSTAR": 9.025962e-06, "MEAN_MOTION_DOT": 2.4e-07, "MEAN_MOTION_DDOT": 0}, "tle": {"line1": "1 66956U 25287D   25358.91908891  .00000024  00000+0  90260-5 0  9991", "line2": "2 66956  86.4976 341.7257 0001044 103.5815 256.5458 13.64670553  2192"}}, "geometry": {"type": "Point", "coordinates": [-19.539797595551487, -10.590862315221337]}}, {"type": "Feature", "properties": {"norad_id": 66957, "name": "HULIANWANG DIGUI-118", "group": "last-30-days", "lat": 37.231379526161575, "lon": -16.22623016321664, "alt_km": 1007.7089425583781, "timestamp": "2025-12-26T14:28:46.397800+00:00", "meta": {"OBJECT_NAME": "HULIANWANG DIGUI-118", "OBJECT_ID": "2025-287E", "EPOCH": "2025-12-21T00:50:13.849728", "MEAN_MOTION": 13.6751011, "ECCENTRICITY": 0.00054729, "INCLINATION": 86.4946, "RA_OF_ASC_NODE": 343.1304, "ARG_OF_PERICENTER": 170.9065, "MEAN_ANOMALY": 189.2194, "EPHEMERIS_TYPE": 0, "CLASSIFICATION_TYPE": "U", "NORAD_CAT_ID": 66957, "ELEMENT_SET_NO": 999, "REV_AT_EPOCH": 166, "BSTAR": 0.00013223305, "MEAN_MOTION_DOT": 1.28e-06, "MEAN_MOTION_DDOT": 0}, "tle": {"line1": "1 66957U 25287E   25355.03488252  .00000128  00000+0  13223-3 0  9993", "line2": "2 66957  86.4946 343.1304 0005472 170.9065 189.2194 13.67510110  1668"}}, "geometry": {"type": "Point", "coordinates": [-16.22623016321664, 37.231379526161575]}}, {"type": "Feature", "properties": {"norad_id": 66958, "name": "CZ-6A R/B", "group": "last-30-days", "lat": -77.96407196685206, "lon": -35.81814884694704, "alt_km": 977.3450307018238, "timestamp": "2025-12-26T14:28:46.397811+00:00", "meta": {"OBJECT_NAME": "CZ-6A R/B", "OBJECT_ID": "2025-287F", "EPOCH": "2025-12-26T06:14:55.129920", "MEAN_MOTION": 13.94921718, "ECCENTRICITY": 0.01070793, "INCLINATION": 86.5066, "RA_OF_ASC_NODE": 340.9606, "ARG_OF_PERICENTER": 61.5121, "MEAN_ANOMALY": 299.6788, "EPHEMERIS_TYPE": 0, "CLASSIFICATION_TYPE": "U", "NORAD_CAT_ID": 66958, "ELEMENT_SET_NO": 999, "REV_AT_EPOCH": 242, "BSTAR": 6.6084559e-05, "MEAN_MOTION_DOT": 1.12e-06, "MEAN_MOTION_DDOT": 0}, "tle": {"line1": "1 66958U 25287F   25360.26036030  .00000112  00000+0  66085-4 0  9996", "line2": "2 66958  86.5066 340.9606 0107079  61.5121 299.6788 13.94921718  2427"}}, "geometry": {"type": "Point", "coordinates": [-35.81814884694704, -77.96407196685206]}}]}